SL-16 R/B               
1 25400U 98043G   26052.45367869  .00000066  00000+0  46728-4 0  9990
2 25400  98.8227   5.7049 0010851  64.0503 296.1794 14.26045658436672
SL-16 R/B               
1 25407U 98045B   26052.46883730  .00000067  00000+0  58171-4 0  9996
2 25407  71.0098 215.6841 0005904  35.6127 324.5389 14.16191241424806
ISS (ZARYA)             
1 25544U 98067A   26052.44255340  .00010789  00000+0  20939-3 0  9992
2 25544  51.6322 152.6650 0008525 118.7039 241.4807 15.48182148553815
CZ-4B R/B               
1 25732U 99025C   26052.35972477  .00000035  00000+0  37577-4 0  9993
2 25732  98.6662  97.0255 0037623  33.4209 341.6980 14.18261840385853
OKEAN-O                 
1 25860U 99039A   26052.15902286  .00000603  00000+0  85959-4 0  9997
2 25860  97.9481 112.2157 0001647  78.0742 282.0654 14.80306435431948
SL-16 R/B               
1 25861U 99039B   26052.15449040  .00000493  00000+0  69342-4 0  9997
2 25861  98.0005 111.2727 0013760 314.6478  45.3611 14.81706247434413
DELTA 2 R/B             
1 25876U 99041E   26052.30087660  .00001599  00000+0  29496-3 0  9992
2 25876  51.7661   6.7306 0502218 300.0387  55.1625 14.11775044360712
HELIOS 1B               
1 25977U 99064A   26052.30226167  .00001676  00000+0  19071-3 0  9990
2 25977  98.1713 314.0629 0002382  97.1685 262.9802 14.87624818682821
TERRA                   
1 25994U 99068A   26052.49337506  .00000377  00000+0  86026-4 0  9995
2 25994  97.9629 106.5440 0001542 197.1237 274.1804 14.60995644392711
SL-16 R/B               
1 26070U 00006B   26052.48002975  .00000090  00000+0  69907-4 0  9994
2 26070  71.0022 131.9219 0017807 212.6560 147.3463 14.15818635346261
TITAN 4B R/B            
1 26474U 00047B   26052.46240769  .00002960  00000+0  19013-3 0  9990
2 26474  67.9877  86.1369 0037604  54.9719 305.4949 15.09403977390468
ENVISAT                 
1 27386U 02009A   26052.49036427  .00000116  00000+0  51463-4 0  9997
2 27386  98.3701   6.4763 0001346  86.7297  24.2193 14.39030306256840
